APRIZESAT 2             
1 28366U 04025A   22302.47629426  .00000162  00000+0  65339-4 0  9993
2 28366  98.1433 164.6374 0106327 292.3163  66.6780 14.36861144961064
SAUDICOMSAT 1           
1 28369U 04025D   22302.87088131  .00000483  00000+0  12780-3 0  9999
2 28369  98.4591 265.4695 0034433 122.1588 238.2956 14.52892190971369
SAUDICOMSAT 2           
1 28370U 04025E   22302.89767481  .00000503  00000+0  14616-3 0  9998
2 28370  98.5509 264.8462 0056806 315.4491  44.2142 14.47786487968109
APRIZESAT 1             
1 28372U 04025G   22302.90283110  .00000334  00000+0  97729-4 0  9993
2 28372  98.5119 264.9439 0045349 225.5766 134.1713 14.49876053969632
NANOSAT-1               
1 28493U 04049B   22302.84312339  .00001108  00000+0  17565-3 0  9991
2 28493  98.1177  43.7635 0003772 209.8267 150.2727 14.74190688959669
SAUDICOMSAT 7           
1 31119U 07012C   22302.82499855  .00000875  00000+0  17895-3 0  9996
2 31119  98.1986 247.5078 0060407  31.5265 328.9533 14.62222869828340
SAUDICOMSAT 6           
1 31121U 07012E   22302.58990582  .00000462  00000+0  10464-3 0  9992
2 31121  98.2380 242.5436 0077005 134.7257 226.0247 14.58992486826504
SAUDICOMSAT 5           
1 31124U 07012H   22302.80147755  .00000958  00000+0  18916-3 0  9996
2 31124  98.1681 248.9492 0050749 337.1146  22.7795 14.63966163829246
SAUDICOMSAT 3           
1 31125U 07012J   22302.82904625  .00000997  00000+0  18958-3 0  9995
2 31125  98.1342 250.3159 0041504 281.0471  78.6066 14.65813752830199
SAUDICOMSAT 4           
1 31127U 07012L   22302.62390037  .00000627  00000+0  13426-3 0  9996
2 31127  98.2210 245.7213 0068931  80.5964 280.3020 14.60724983827467
APRIZESAT 4             
1 35684U 09041D   22302.86894967  .00000789  00000+0  11082-3 0  9994
2 35684  98.3069 321.1078 0045362 280.8612  78.7495 14.79803026714947
APRIZESAT 3             
1 35686U 09041F   22302.71905135  .00001303  00000+0  14098-3 0  9993
2 35686  98.1038  32.3630 0072996 107.2889 253.6331 14.88189182718575
AISSAT 1                
1 36797U 10035C   22302.80973150  .00001939  00000+0  22054-3 0  9990
2 36797  98.2372 131.7593 0012107  92.9350 267.3250 14.87444437666417
S-NET D                 
1 43186U 18014G   22302.67998120  .00003294  00000+0  28057-3 0  9999
2 43186  97.6454 205.7961 0010080 195.5851 164.5063 14.98425387259015
S-NET B                 
1 43187U 18014H   22302.68030940  .00003317  00000+0  28248-3 0  9996
2 43187  97.6450 205.7414 0010074 195.3818 164.7099 14.98422816259014
S-NET A                 
1 43188U 18014J   22302.68061808  .00003315  00000+0  28233-3 0  9996
2 43188  97.6457 205.8129 0010048 195.4360 164.6557 14.98423084259016
S-NET C                 
1 43189U 18014K   22302.61481023  .00003409  00000+0  29022-3 0  9996
2 43189  97.6451 205.6640 0009995 195.3586 164.7334 14.98419653257553
SALSAT                  
1 46495U 20068K   22302.81892974  .00003348  00000+0  23871-3 0  9992
2 46495  97.7416 244.2799 0016278 175.3827 184.7553 15.05161910114398
